ONEWEB-0446             
1 51640U 22012U   24162.54988976 -.00000689  00000+0 -20099-2 0  9990
2 51640  87.8943 182.7344 0001833  83.9445 276.1891 13.10373858112854
ONEWEB-0448             
1 51641U 22012V   24162.55488626 -.00000541  00000+0 -15873-2 0  9990
2 51641  87.8945 182.7343 0002180  93.6462 266.4915 13.10376118114111
ONEWEB-0449             
1 51642U 22012W   24162.55986096 -.00000338  00000+0 -10047-2 0  9997
2 51642  87.8941 182.7290 0001840  97.6824 262.4512 13.10376161112831
ONEWEB-0451             
1 51643U 22012X   24162.39965964  .00000045  00000+0  81950-4 0  9997
2 51643  87.9157 152.5187 0002118  92.8684 267.2690 13.17646752116637
ONEWEB-0452             
1 51644U 22012Y   24162.47401732  .00000056  00000+0  11165-3 0  9997
2 51644  87.9164 152.5434 0001999  98.1876 261.9482 13.17646781116653
ONEWEB-0456             
1 51646U 22012AA  24162.56983213  .00000188  00000+0  50247-3 0  9998
2 51646  87.8937 182.6991 0002294  84.6678 275.4711 13.10375786112875
ONEWEB-0457             
1 51647U 22012AB  24162.54659668  .00002283  00000+0  65037-2 0  9991
2 51647  87.8938 182.7261 0001379  92.1605 267.9680 13.10362062112879
ONEWEB-0458             
1 51648U 22012AC  24162.56817035  .00000117  00000+0  30014-3 0  9990
2 51648  87.8948 182.7366 0002110  96.1345 264.0023 13.10376095112832
